ONEWEB-0235             
1 48771U 21045E   24199.93327852  .00000211  00000+0  52595-3 0  9995
2 48771  87.9018  38.3443 0001940  63.1670 296.9659 13.15548239152447
ONEWEB-0242             
1 48772U 21045F   24199.92694209  .00000132  00000+0  31616-3 0  9991
2 48772  87.9016  38.3337 0001893  80.1611 279.9733 13.15547916152488
ONEWEB-0241             
1 48773U 21045G   24199.91426246  .00000082  00000+0  18331-3 0  9998
2 48773  87.9024  38.3860 0001486  74.6088 285.5206 13.15547769152397
ONEWEB-0243             
1 48774U 21045H   24199.94596121  .00000063  00000+0  13246-3 0  9991
2 48774  87.9027  38.3389 0001914  67.2447 292.8885 13.15548582152422
ONEWEB-0222             
1 48775U 21045J   24199.92932288  .00000162  00000+0  39620-3 0  9992
2 48775  87.9014  38.3427 0001620  77.4181 282.7130 13.15548433152464
ONEWEB-0244             
1 48776U 21045K   24199.57516838 -.00000079  00000+0 -24407-3 0  9999
2 48776  87.9013  38.3954 0001933  81.7416 278.3933 13.15549083152986
ONEWEB-0247             
1 48777U 21045L   24199.57200480 -.00000064  00000+0 -20333-3 0  9991
2 48777  87.9022  38.4392 0002225  57.2611 302.8734 13.15547128152423
ONEWEB-0245             
1 48778U 21045M   24199.94753616  .00000047  00000+0  90102-4 0  9998
2 48778  87.9015  38.3519 0001545  82.2983 277.8322 13.15547989152441
